[{"OBJECT_NAME":"COSMOS 1812","OBJECT_ID":"1987-003A","EPOCH":"2026-03-02T00:19:21.107136","MEAN_MOTION":16.1891833,"ECCENTRICITY":0.0006784,"INCLINATION":82.4732,"RA_OF_ASC_NODE":204.4146,"ARG_OF_PERICENTER":288.0935,"MEAN_ANOMALY":71.9614,"EPHEMERIS_TYPE":0,"CLASSIFICATION_TYPE":"U","NORAD_CAT_ID":17295,"ELEMENT_SET_NO":999,"REV_AT_EPOCH":14324,"BSTAR":0.0008087416,"MEAN_MOTION_DOT":0.01403358,"MEAN_MOTION_DDOT":-1.203447e-6},{"OBJECT_NAME":"IRIDIUM 51","OBJECT_ID":"1998-018A","EPOCH":"2026-03-02T19:34:16.841280","MEAN_MOTION":15.98263943,"ECCENTRICITY":0.001832,"INCLINATION":86.3543,"RA_OF_ASC_NODE":284.2649,"ARG_OF_PERICENTER":312.6025,"MEAN_ANOMALY":47.3714,"EPHEMERIS_TYPE":0,"CLASSIFICATION_TYPE":"U","NORAD_CAT_ID":25262,"ELEMENT_SET_NO":999,"REV_AT_EPOCH":48725,"BSTAR":0.0012882,"MEAN_MOTION_DOT":0.00601208,"MEAN_MOTION_DDOT":0.0001549},{"OBJECT_NAME":"CZ-2D DEB","OBJECT_ID":"2005-024J","EPOCH":"2026-03-01T21:43:49.210752","MEAN_MOTION":15.92111318,"ECCENTRICITY":0.0004089,"INCLINATION":97.1482,"RA_OF_ASC_NODE":103.0739,"ARG_OF_PERICENTER":145.2826,"MEAN_ANOMALY":214.8716,"EPHEMERIS_TYPE":0,"CLASSIFICATION_TYPE":"U","NORAD_CAT_ID":31409,"ELEMENT_SET_NO":999,"REV_AT_EPOCH":11718,"BSTAR":0.00072484,"MEAN_MOTION_DOT":0.0023946,"MEAN_MOTION_DDOT":2.3346e-5},{"OBJECT_NAME":"ZIYUAN 3-01 (ZY 3-01)","OBJECT_ID":"2012-001A","EPOCH":"2026-03-02T20:52:48.040608","MEAN_MOTION":15.96838851,"ECCENTRICITY":0.0001582,"INCLINATION":97.1546,"RA_OF_ASC_NODE":136.3605,"ARG_OF_PERICENTER":245.7463,"MEAN_ANOMALY":114.3649,"EPHEMERIS_TYPE":0,"CLASSIFICATION_TYPE":"U","NORAD_CAT_ID":38046,"ELEMENT_SET_NO":999,"REV_AT_EPOCH":78761,"BSTAR":0.00094385,"MEAN_MOTION_DOT":0.00400427,"MEAN_MOTION_DDOT":6.7235e-5},{"OBJECT_NAME":"HUMSAT-D","OBJECT_ID":"2013-066T","EPOCH":"2026-03-02T13:30:41.287968","MEAN_MOTION":15.97804823,"ECCENTRICITY":0.0006834,"INCLINATION":97.4841,"RA_OF_ASC_NODE":73.9995,"ARG_OF_PERICENTER":161.4567,"MEAN_ANOMALY":198.696,"EPHEMERIS_TYPE":0,"CLASSIFICATION_TYPE":"U","NORAD_CAT_ID":39433,"ELEMENT_SET_NO":999,"REV_AT_EPOCH":67032,"BSTAR":0.0019629,"MEAN_MOTION_DOT":0.0087716,"MEAN_MOTION_DDOT":0.00035625},{"OBJECT_NAME":"H-2A DEB","OBJECT_ID":"2018-084E","EPOCH":"2026-03-02T19:13:04.250496","MEAN_MOTION":15.97147042,"ECCENTRICITY":0.0003218,"INCLINATION":98.0079,"RA_OF_ASC_NODE":277.4869,"ARG_OF_PERICENTER":303.1909,"MEAN_ANOMALY":56.9057,"EPHEMERIS_TYPE":0,"CLASSIFICATION_TYPE":"U","NORAD_CAT_ID":43675,"ELEMENT_SET_NO":999,"REV_AT_EPOCH":40202,"BSTAR":0.0024552,"MEAN_MOTION_DOT":0.01053832,"MEAN_MOTION_DDOT":0.00053161},{"OBJECT_NAME":"SPACEBEE-7","OBJECT_ID":"2018-099BL","EPOCH":"2026-03-02T18:08:26.549376","MEAN_MOTION":16.03076494,"ECCENTRICITY":0.0007821,"INCLINATION":97.4408,"RA_OF_ASC_NODE":148.0919,"ARG_OF_PERICENTER":270.3555,"MEAN_ANOMALY":89.6828,"EPHEMERIS_TYPE":0,"CLASSIFICATION_TYPE":"U","NORAD_CAT_ID":43816,"ELEMENT_SET_NO":999,"REV_AT_EPOCH":39810,"BSTAR":0.0019892,"MEAN_MOTION_DOT":0.01193306,"MEAN_MOTION_DDOT":0.00078424},{"OBJECT_NAME":"STARLINK-1112","OBJECT_ID":"2020-001M","EPOCH":"2026-03-02T19:56:01.863168","MEAN_MOTION":16.04943226,"ECCENTRICITY":0.000366,"INCLINATION":53.0343,"RA_OF_ASC_NODE":276.6873,"ARG_OF_PERICENTER":265.7652,"MEAN_ANOMALY":94.2961,"EPHEMERIS_TYPE":0,"CLASSIFICATION_TYPE":"U","NORAD_CAT_ID":44925,"ELEMENT_SET_NO":999,"REV_AT_EPOCH":34022,"BSTAR":0.00087701,"MEAN_MOTION_DOT":0.00613782,"MEAN_MOTION_DDOT":0.00019212},{"OBJECT_NAME":"STARLINK-1210","OBJECT_ID":"2020-012AF","EPOCH":"2026-03-02T22:13:10.866144","MEAN_MOTION":16.27375304,"ECCENTRICITY":0.0006635,"INCLINATION":53.0007,"RA_OF_ASC_NODE":293.3318,"ARG_OF_PERICENTER":252.6321,"MEAN_ANOMALY":107.3994,"EPHEMERIS_TYPE":0,"CLASSIFICATION_TYPE":"U","NORAD_CAT_ID":45207,"ELEMENT_SET_NO":999,"REV_AT_EPOCH":33583,"BSTAR":0.00086752,"MEAN_MOTION_DOT":0.03202188,"MEAN_MOTION_DDOT":1.2006e-5},{"OBJECT_NAME":"STARLINK-1294","OBJECT_ID":"2020-025W","EPOCH":"2026-03-02T21:55:20.427168","MEAN_MOTION":16.39780373,"ECCENTRICITY":0.0003277,"INCLINATION":53.0157,"RA_OF_ASC_NODE":8.4401,"ARG_OF_PERICENTER":240.2285,"MEAN_ANOMALY":119.8435,"EPHEMERIS_TYPE":0,"CLASSIFICATION_TYPE":"U","NORAD_CAT_ID":45551,"ELEMENT_SET_NO":999,"REV_AT_EPOCH":32587,"BSTAR":0.00065191,"MEAN_MOTION_DOT":0.08698372,"MEAN_MOTION_DDOT":1.233e-5},{"OBJECT_NAME":"STARLINK-1484","OBJECT_ID":"2020-038AC","EPOCH":"2026-03-02T22:00:01.999584","MEAN_MOTION":15.96975423,"ECCENTRICITY":0.0006855,"INCLINATION":52.999,"RA_OF_ASC_NODE":91.5999,"ARG_OF_PERICENTER":32.7054,"MEAN_ANOMALY":67.3976,"EPHEMERIS_TYPE":0,"CLASSIFICATION_TYPE":"U","NORAD_CAT_ID":45756,"ELEMENT_SET_NO":999,"REV_AT_EPOCH":606,"BSTAR":0.00097254,"MEAN_MOTION_DOT":0.00428958,"MEAN_MOTION_DDOT":8.6669e-5},{"OBJECT_NAME":"STARLINK-1601","OBJECT_ID":"2020-057D","EPOCH":"2026-03-02T22:04:58.043136","MEAN_MOTION":16.22757357,"ECCENTRICITY":0.0006756,"INCLINATION":53.0307,"RA_OF_ASC_NODE":289.3063,"ARG_OF_PERICENTER":251.0894,"MEAN_ANOMALY":108.9413,"EPHEMERIS_TYPE":0,"CLASSIFICATION_TYPE":"U","NORAD_CAT_ID":46120,"ELEMENT_SET_NO":999,"REV_AT_EPOCH":30713,"BSTAR":0.001106,"MEAN_MOTION_DOT":0.02747533,"MEAN_MOTION_DDOT":1.1881e-5},{"OBJECT_NAME":"STARLINK-1710","OBJECT_ID":"2020-062F","EPOCH":"2026-03-02T22:53:29.330016","MEAN_MOTION":16.32891849,"ECCENTRICITY":0.000642,"INCLINATION":53.0183,"RA_OF_ASC_NODE":311.0443,"ARG_OF_PERICENTER":241.4836,"MEAN_ANOMALY":118.5561,"EPHEMERIS_TYPE":0,"CLASSIFICATION_TYPE":"U","NORAD_CAT_ID":46330,"ELEMENT_SET_NO":999,"REV_AT_EPOCH":30464,"BSTAR":0.0010242,"MEAN_MOTION_DOT":0.06403357,"MEAN_MOTION_DDOT":1.2128e-5},{"OBJECT_NAME":"STARLINK-1723","OBJECT_ID":"2020-062J","EPOCH":"2026-03-02T12:46:55.421760","MEAN_MOTION":16.13069914,"ECCENTRICITY":0.00057249,"INCLINATION":53.0373,"RA_OF_ASC_NODE":359.0751,"ARG_OF_PERICENTER":189.6194,"MEAN_ANOMALY":170.4732,"EPHEMERIS_TYPE":0,"CLASSIFICATION_TYPE":"U","NORAD_CAT_ID":46333,"ELEMENT_SET_NO":999,"REV_AT_EPOCH":30392,"BSTAR":0.0012791403,"MEAN_MOTION_DOT":0.01485377,"MEAN_MOTION_DDOT":0.0016547601},{"OBJECT_NAME":"STARLINK-1738","OBJECT_ID":"2020-062M","EPOCH":"2026-03-02T20:00:01.999008","MEAN_MOTION":15.98751496,"ECCENTRICITY":0.0005591,"INCLINATION":53.0293,"RA_OF_ASC_NODE":315.8358,"ARG_OF_PERICENTER":130.6968,"MEAN_ANOMALY":297.5526,"EPHEMERIS_TYPE":0,"CLASSIFICATION_TYPE":"U","NORAD_CAT_ID":46336,"ELEMENT_SET_NO":999,"REV_AT_EPOCH":603,"BSTAR":0.00082479,"MEAN_MOTION_DOT":0.00401154,"MEAN_MOTION_DDOT":7.8533e-5},{"OBJECT_NAME":"STARLINK-1750","OBJECT_ID":"2020-062N","EPOCH":"2026-03-02T22:01:36.903072","MEAN_MOTION":16.36733543,"ECCENTRICITY":0.0007193,"INCLINATION":53.0231,"RA_OF_ASC_NODE":324.6442,"ARG_OF_PERICENTER":235.8147,"MEAN_ANOMALY":124.2216,"EPHEMERIS_TYPE":0,"CLASSIFICATION_TYPE":"U","NORAD_CAT_ID":46337,"ELEMENT_SET_NO":999,"REV_AT_EPOCH":30444,"BSTAR":0.00087715,"MEAN_MOTION_DOT":0.0828519,"MEAN_MOTION_DDOT":1.2208e-5}]
